NORAD_CAT_ID,OBJECT_NAME,OBJECT_TYPE,EPOCH,MEAN_MOTION,ECCENTRICITY,INCLINATION,RA_OF_ASC_NODE,ARG_OF_PERICENTER,MEAN_ANOMALY,BSTAR,MEAN_MOTION_DOT,MEAN_MOTION_DDOT,TLE_LINE0,TLE_LINE1,TLE_LINE2,SEMIMAJOR_AXIS,PERIOD,APOGEE,PERIGEE,DECAYED
53421.0,STARLINK-4545,PAYLOAD,2024-04-25 16:17:29,15.08838347,0.0001625,53.2165,300.275,85.9608,274.1569,0.00024571,3.624e-05,0.0,0 STARLINK-4545,1 53421U 22097AK  24116.67881592  .00003624  00000-0  24571-3 0  9992,2 53421  53.2165 300.2750 0001625  85.9608 274.1569 15.08838347 95517,6917.885,95.438,540.875,538.626,0.0
53421.0,STARLINK-4545,PAYLOAD,2024-04-26 16:08:16,15.08840417,0.0001582,53.2166,295.8153,80.7101,279.407,8.6292e-05,1.086e-05,0.0,0 STARLINK-4545,1 53421U 22097AK  24117.67241655  .00001086  00000-0  86292-4 0  9992,2 53421  53.2166 295.8153 0001582  80.7101 279.4070 15.08840417 95669,6917.879,95.438,540.839,538.65,0.0
53421.0,STARLINK-4545,PAYLOAD,2024-04-27 04:51:21,15.08845274,0.000162,53.2167,293.4345,101.6398,258.4776,0.0002129,3.102e-05,0.0,0 STARLINK-4545,1 53421U 22097AK  24118.20233315  .00003102  00000-0  21290-3 0  9993,2 53421  53.2167 293.4345 0001620 101.6398 258.4776 15.08845274 95285,6917.864,95.437,540.85,538.609,0.0
53421.0,STARLINK-4545,PAYLOAD,2024-04-27 11:12:54,15.0884646,0.0001845,53.2172,292.2476,94.7616,265.3587,0.00028184,4.201e-05,0.0,0 STARLINK-4545,1 53421U 22097AK  24118.46729438  .00004201  00000-0  28184-3 0  9997,2 53421  53.2172 292.2476 0001845  94.7616 265.3587 15.08846460 95787,6917.861,95.437,541.002,538.449,0.0
53421.0,STARLINK-4545,PAYLOAD,2024-04-27 19:09:49,15.0885238,0.0001428,53.2159,290.7621,85.7135,274.402,0.00030864,4.629e-05,0.0,0 STARLINK-4545,1 53421U 22097AK  24118.79849010  .00004629  00000-0  30864-3 0  9994,2 53421  53.2159 290.7621 0001428  85.7135 274.4020 15.08852380 95837,6917.843,95.437,540.695,538.72,0.0
53421.0,STARLINK-4545,PAYLOAD,2024-04-28 04:42:08,15.08843195,0.0001614,53.2172,288.9754,80.3568,279.7606,0.00011309,1.512e-05,0.0,0 STARLINK-4545,1 53421U 22097AK  24119.19593367  .00001512  00000-0  11309-3 0  9991,2 53421  53.2172 288.9754 0001614  80.3568 279.7606 15.08843195 95434,6917.871,95.437,540.852,538.619,0.0
53421.0,STARLINK-4545,PAYLOAD,2024-04-28 20:36:00,15.08833924,0.0001451,53.2172,286.0009,90.9571,269.1587,-6.9318e-05,-1.391e-05,0.0,0 STARLINK-4545,1 53421U 22097AK  24119.85833934 -.00001391  00000-0 -69318-4 0  9992,2 53421  53.2172 286.0009 0001451  90.9571 269.1587 15.08833924 95537,6917.899,95.438,540.768,538.76,0.0
53421.0,STARLINK-4545,PAYLOAD,2024-04-29 04:32:56,15.08837119,0.000145,53.2171,284.5149,87.7571,272.3587,7.1472e-05,8.5e-06,0.0,0 STARLINK-4545,1 53421U 22097AK  24120.18954004  .00000850  00000-0  71472-4 0  9993,2 53421  53.2171 284.5149 0001450  87.7571 272.3587 15.08837119 96040,6917.889,95.438,540.757,538.751,0.0
53421.0,STARLINK-4545,PAYLOAD,2024-04-29 17:16:00,15.08854143,0.000136,53.2152,282.1366,74.9803,285.134,0.0006011,9.295e-05,0.0,0 STARLINK-4545,1 53421U 22097AK  24120.71945587  .00009295  00000-0  60110-3 0  9996,2 53421  53.2152 282.1366 0001360  74.9803 285.1340 15.08854143 95662,6917.837,95.437,540.643,538.761,0.0
53421.0,STARLINK-4545,PAYLOAD,2024-04-30 13:56:01,15.08847071,0.0001482,53.2149,278.2697,69.2183,290.8968,0.00020771,3.02e-05,0.0,0 STARLINK-4545,1 53421U 22097AK  24121.58057808  .00003020  00000-0  20771-3 0  9991,2 53421  53.2149 278.2697 0001482  69.2183 290.8968 15.08847071 95799,6917.859,95.437,540.749,538.699,0.0
53421.0,STARLINK-4545,PAYLOAD,2024-04-30 17:06:48,15.08845534,0.0001352,53.2154,277.6771,55.3345,304.7775,0.00022813,3.345e-05,0.0,0 STARLINK-4545,1 53421U 22097AK  24121.71305909  .00003345  00000-0  22813-3 0  9993,2 53421  53.2154 277.6771 0001352  55.3345 304.7775 15.08845534 96270,6917.863,95.437,540.664,538.793,0.0
53421.0,STARLINK-4545,PAYLOAD,2024-05-01 10:36:02,15.08848429,0.0001155,53.2162,274.4051,75.6828,284.4292,0.00024413,3.6e-05,0.0,0 STARLINK-4545,1 53421U 22097AK  24122.44169609  .00003600  00000-0  24413-3 0  9991,2 53421  53.2162 274.4051 0001155  75.6828 284.4292 15.08848429 96383,6917.855,95.437,540.519,538.921,0.0
53421.0,STARLINK-4545,PAYLOAD,2024-05-01 16:57:34,15.08854344,0.0001167,53.2163,273.2155,77.6271,282.4852,0.00038564,5.857e-05,0.0,0 STARLINK-4545,1 53421U 22097AK  24122.70665286  .00005857  00000-0  38564-3 0  9990,2 53421  53.2163 273.2155 0001167  77.6271 282.4852 15.08854344 95969,6917.837,95.437,540.509,538.894,0.0
53421.0,STARLINK-4545,PAYLOAD,2024-05-02 13:37:36,15.08831089,0.0001388,53.2164,269.3502,89.655,270.4601,-0.0001213,-2.217e-05,0.0,0 STARLINK-4545,1 53421U 22097AK  24123.56778086 -.00002217  00000-0 -12130-3 0  9998,2 53421  53.2164 269.3502 0001388  89.6550 270.4601 15.08831089 96095,6917.908,95.438,540.733,538.812,0.0
53421.0,STARLINK-4545,PAYLOAD,2024-05-02 15:12:59,15.08832089,0.0001372,53.2163,269.0532,88.576,271.5389,-9.1223e-05,-1.739e-05,0.0,0 STARLINK-4545,1 53421U 22097AK  24123.63402090 -.00001739  00000-0 -91223-4 0  9994,2 53421  53.2163 269.0532 0001372  88.5760 271.5389 15.08832089 96566,6917.905,95.438,540.719,538.82,0.0
53421.0,STARLINK-4545,PAYLOAD,2024-05-03 02:20:41,15.08843519,0.0001422,53.2164,266.9719,93.3426,266.7729,0.0003502,5.29e-05,0.0,0 STARLINK-4545,1 53421U 22097AK  24124.09769870  .00005290  00000-0  35020-3 0  9993,2 53421  53.2164 266.9719 0001422  93.3426 266.7729 15.08843519 96170,6917.87,95.437,540.718,538.751,0.0
53421.0,STARLINK-4545,PAYLOAD,2024-05-03 15:03:45,15.08864546,0.0001344,53.2153,264.5922,90.4295,269.6852,0.0010567,0.00016581,0.0,0 STARLINK-4545,1 53421U 22097AK  24124.62761367  .00016581  00000-0  10567-2 0  9998,2 53421  53.2153 264.5922 0001344  90.4295 269.6852 15.08864546 96715,6917.805,95.436,540.6,538.741,0.0
53421.0,STARLINK-4545,PAYLOAD,2024-05-03 18:14:31,15.08873597,0.000132,53.2154,263.9983,91.6974,268.417,0.0011095,0.0001743,0.0,0 STARLINK-4545,1 53421U 22097AK  24124.76008990  .00017430  00000-0  11095-2 0  9990,2 53421  53.2154 263.9983 0001320  91.6974 268.4170 15.08873597 96274,6917.778,95.435,540.556,538.73,0.0
53421.0,STARLINK-4545,PAYLOAD,2024-05-04 13:19:09,15.08843908,0.0002019,53.2148,260.4286,126.1618,233.9561,0.00025854,3.829e-05,0.0,0 STARLINK-4545,1 53421U 22097AK  24125.55497479  .00003829  00000-0  25854-3 0  9998,2 53421  53.2148 260.4286 0002019 126.1618 233.9561 15.08843908 96397,6917.868,95.437,541.13,538.337,0.0
53421.0,STARLINK-4545,PAYLOAD,2024-05-04 16:29:56,15.0883502,9.79e-05,53.2147,259.8341,112.0046,248.105,0.00018561,2.667e-05,0.0,0 STARLINK-4545,1 53421U 22097AK  24125.68745767  .00002667  00000-0  18561-3 0  9994,2 53421  53.2147 259.8341 0000979 112.0046 248.1050 15.08835020 96412,6917.896,95.438,540.438,539.083,0.0
53421.0,STARLINK-4545,PAYLOAD,2024-05-05 02:02:15,15.08831615,0.0001094,53.2147,258.05,71.5559,288.5552,0.00063776,9.874e-05,0.0,0 STARLINK-4545,1 53421U 22097AK  24126.08490520  .00009874  00000-0  63776-3 0  9998,2 53421  53.2147 258.0500 0001094  71.5559 288.5552 15.08831615 96474,6917.906,95.438,540.528,539.014,0.0
53421.0,STARLINK-4545,PAYLOAD,2024-05-05 14:45:20,15.08848976,0.0001013,53.2142,255.6677,71.9829,288.1273,0.0010088,0.00015807,0.0,0 STARLINK-4545,1 53421U 22097AK  24126.61482375  .00015807  00000-0  10088-2 0  9996,2 53421  53.2142 255.6677 0001013  71.9829 288.1273 15.08848976 97017,6917.853,95.437,540.419,539.017,0.0
53421.0,STARLINK-4545,PAYLOAD,2024-05-05 16:20:43,15.08853395,0.0001181,53.2153,255.3703,72.5668,287.5454,0.0011199,0.00017587,0.0,0 STARLINK-4545,1 53421U 22097AK  24126.68106339  .00017587  00000-0  11199-2 0  9997,2 53421  53.2153 255.3703 0001181  72.5668 287.5454 15.08853395 97026,6917.839,95.437,540.521,538.887,0.0
53421.0,STARLINK-4545,PAYLOAD,2024-05-06 13:00:44,15.08852613,0.0001453,53.2154,251.5096,65.2846,294.8297,0.00040427,6.154e-05,0.0,0 STARLINK-4545,1 53421U 22097AK  24127.54218065  .00006154  00000-0  40427-3 0  9998,2 53421  53.2154 251.5096 0001453  65.2846 294.8297 15.08852613 96699,6917.842,95.437,540.712,538.702,0.0
53421.0,STARLINK-4545,PAYLOAD,2024-05-06 14:36:07,15.08854133,0.000127,53.2166,251.2106,71.4475,288.6655,0.00047168,7.23e-05,0.0,0 STARLINK-4545,1 53421U 22097AK  24127.60841948  .00007230  00000-0  47168-3 0  9992,2 53421  53.2166 251.2106 0001270  71.4475 288.6655 15.08854133 97166,6917.837,95.437,540.581,538.824,0.0
53421.0,STARLINK-4545,PAYLOAD,2024-05-07 12:51:31,15.08840807,0.000105,53.2164,247.0483,77.7674,282.3436,0.00013393,1.844e-05,0.0,0 STARLINK-4545,1 53421U 22097AK  24128.53578255  .00001844  00000-0  13393-3 0  9991,2 53421  53.2164 247.0483 0001050  77.7674 282.3436 15.08840807 96846,6917.878,95.438,540.469,539.017,0.0
53421.0,STARLINK-4545,PAYLOAD,2024-05-07 14:26:54,15.08837768,0.0001077,53.2161,246.7503,75.4581,284.653,0.00010705,1.416e-05,0.0,0 STARLINK-4545,1 53421U 22097AK  24128.60202275  .00001416  00000-0  10705-3 0  9994,2 53421  53.2161 246.7503 0001077  75.4581 284.6530 15.08837768 97318,6917.887,95.438,540.497,539.007,0.0
53421.0,STARLINK-4545,PAYLOAD,2024-05-07 17:37:41,15.08840156,0.000105,53.2161,246.1554,74.035,286.0758,0.00023628,3.475e-05,0.0,0 STARLINK-4545,1 53421U 22097AK  24128.73450318  .00003475  00000-0  23628-3 0  9996,2 53421  53.2161 246.1554 0001050  74.0350 286.0758 15.08840156 97333,6917.88,95.438,540.471,539.019,0.0
53421.0,STARLINK-4545,PAYLOAD,2024-05-08 12:42:19,15.08838751,0.0001284,53.2158,242.5856,88.239,271.8749,0.00015137,2.122e-05,0.0,0 STARLINK-4545,1 53421U 22097AK  24129.52938800  .00002122  00000-0  15137-3 0  9995,2 53421  53.2158 242.5856 0001284  88.2390 271.8749 15.08838751 96995,6917.884,95.438,540.637,538.861,0.0
53421.0,STARLINK-4545,PAYLOAD,2024-05-08 14:17:42,15.08842172,0.0001232,53.2157,242.2888,84.3211,275.7922,0.00021871,3.195e-05,0.0,0 STARLINK-4545,1 53421U 22097AK  24129.59562714  .00003195  00000-0  21871-3 0  9992,2 53421  53.2157 242.2888 0001232  84.3211 275.7922 15.08842172 97469,6917.874,95.437,540.591,538.886,0.0
